[{"OBJECT_NAME":"COSMOS 2437","OBJECT_ID":"2008-025B","EPOCH":"2026-03-09T22:53:31.166016","MEAN_MOTION":12.42757373,"ECCENTRICITY":0.00203206,"INCLINATION":82.4982,"RA_OF_ASC_NODE":59.1511,"ARG_OF_PERICENTER":182.6934,"MEAN_ANOMALY":270.119,"EPHEMERIS_TYPE":0,"CLASSIFICATION_TYPE":"U","NORAD_CAT_ID":32954,"ELEMENT_SET_NO":999,"REV_AT_EPOCH":80704,"BSTAR":0.00093092116,"MEAN_MOTION_DOT":1.39e-6,"MEAN_MOTION_DDOT":0},{"OBJECT_NAME":"COSMOS 2491 DEB","OBJECT_ID":"2013-076AX","EPOCH":"2026-02-28T17:28:38.982144","MEAN_MOTION":12.5506262,"ECCENTRICITY":0.0086985,"INCLINATION":82.4852,"RA_OF_ASC_NODE":223.3556,"ARG_OF_PERICENTER":212.1141,"MEAN_ANOMALY":147.463,"EPHEMERIS_TYPE":0,"CLASSIFICATION_TYPE":"U","NORAD_CAT_ID":57560,"ELEMENT_SET_NO":999,"REV_AT_EPOCH":12858,"BSTAR":0.014501242,"MEAN_MOTION_DOT":2.399e-5,"MEAN_MOTION_DDOT":0}]
